{
  "norad_id": 56507,
  "name": "STARLINK-5333",
  "history": [
    {
      "epoch": "2026-04-15T20:00:01.999008Z",
      "apogee_km": 521.5466744980731,
      "perigee_km": 517.9073614421923,
      "latitude_deg": 26.589814743971495,
      "longitude_deg": -142.47524885436002,
      "height_km": 521.4703275580124,
      "semi_major_axis_km": 6897.864017970132,
      "eccentricity": 0.0002638,
      "inclination_deg": 42.9995,
      "raan_deg": 329.2588,
      "arg_perigee_deg": 244.0932,
      "mean_anomaly_deg": 156.7469,
      "mean_motion_rev_day": 15.15412339
    },
    {
      "epoch": "2026-04-16T20:00:01.999008Z",
      "apogee_km": 518.1320802411828,
      "perigee_km": 514.4918111978423,
      "latitude_deg": 41.73123822700097,
      "longitude_deg": -73.30350000952616,
      "height_km": 520.9682339494536,
      "semi_major_axis_km": 6894.448945719512,
      "eccentricity": 0.000264,
      "inclination_deg": 42.9998,
      "raan_deg": 323.7146,
      "arg_perigee_deg": 277.1803,
      "mean_anomaly_deg": 186.15,
      "mean_motion_rev_day": 15.16538437
    },
    {
      "epoch": "2026-04-18T00:00:04.000320Z",
      "apogee_km": 514.0096713926232,
      "perigee_km": 510.6126804418964,
      "latitude_deg": 0.9422367713683848,
      "longitude_deg": 112.09631460142374,
      "height_km": 512.0185703757822,
      "semi_major_axis_km": 6890.4481759172595,
      "eccentricity": 0.0002465,
      "inclination_deg": 42.9997,
      "raan_deg": 317.2333,
      "arg_perigee_deg": 269.812,
      "mean_anomaly_deg": 91.618,
      "mean_motion_rev_day": 15.1785944
    },
    {
      "epoch": "2026-04-18T20:00:01.000224Z",
      "apogee_km": 510.35493646408395,
      "perigee_km": 508.5586520025481,
      "latitude_deg": -36.532353700463354,
      "longitude_deg": 37.83481832962346,
      "height_km": 519.2344639518761,
      "semi_major_axis_km": 6887.593794233316,
      "eccentricity": 0.0001304,
      "inclination_deg": 42.999,
      "raan_deg": 312.5901,
      "arg_perigee_deg": 259.2257,
      "mean_anomaly_deg": 341.1562,
      "mean_motion_rev_day": 15.18803093
    },
    {
      "epoch": "2026-04-19T20:00:01.999008Z",
      "apogee_km": 507.6071561128101,
      "perigee_km": 504.3206863330188,
      "latitude_deg": -28.961832736429706,
      "longitude_deg": 122.90834024863113,
      "height_km": 512.5780603877214,
      "semi_major_axis_km": 6884.100921222915,
      "eccentricity": 0.0002387,
      "inclination_deg": 42.9995,
      "raan_deg": 307.0226,
      "arg_perigee_deg": 262.9284,
      "mean_anomaly_deg": 52.1294,
      "mean_motion_rev_day": 15.19959161
    },
    {
      "epoch": "2026-04-20T14:00:03.000384Z",
      "apogee_km": 504.2612015173154,
      "perigee_km": 502.61402781754805,
      "latitude_deg": 41.614918293630296,
      "longitude_deg": -7.177254923202832,
      "height_km": 507.07382352979994,
      "semi_major_axis_km": 6881.574614667431,
      "eccentricity": 0.00011968,
      "inclination_deg": 42.9996,
      "raan_deg": 302.8333,
      "arg_perigee_deg": 277.0826,
      "mean_anomaly_deg": 186.7882,
      "mean_motion_rev_day": 15.2079623
    }
  ]
}